METEOR-M 2              
1 40069U 14037A   22149.58958945  .00000031  00000+0  33723-4 0  9990
2 40069  98.4322 168.2538 0006302  28.2011 331.9510 14.20709474409189
HIMAWARI-8              
1 40267U 14060A   22149.53537464 -.00000268  00000+0  00000+0 0  9990
2 40267   0.0567 114.2013 0000663 332.7839 133.4479  1.00271203 27928
FENGYUN 2G              
1 40367U 14090A   22149.59848866 -.00000297  00000+0  00000+0 0  9993
2 40367   1.8896  89.6261 0001423 351.2567 121.6054  1.00272549 27160
METEOSAT-11 (MSG-4)     
1 40732U 15034A   22146.62032478 -.00000007  00000+0  00000+0 0  9992
2 40732   0.2512  47.4082 0001367  56.0710   3.6515  1.00273495 25164
ELEKTRO-L 2             
1 41105U 15074A   22149.15882553 -.00000110  00000+0  00000+0 0  9994
2 41105   2.9419  88.3343 0001707  40.2175 160.7600  1.00272248 23675
HIMAWARI-9              
1 41836U 16064A   22149.53290706 -.00000267  00000+0  00000+0 0  9993
2 41836   0.0170   9.5282 0000777  49.6286 160.4743  1.00274590 20357
GOES 16                 
1 41866U 16071A   22149.46459022 -.00000241  00000+0  00000+0 0  9996
2 41866   0.0483 258.6933 0000592 212.3356 228.0002  1.00271840 20274
FENGYUN 4A              
1 41882U 16077A   22148.83799313 -.00000324  00000+0  00000+0 0  9992
2 41882   0.0786 295.9471 0004124 197.1422 159.5241  1.00271966 20135
CYGFM05                 
1 41884U 16078A   22148.88660351  .00002802  00000+0  14278-3 0  9997
2 41884  34.9565 323.6899 0016031 276.2641  83.6245 15.16249949301819
CYGFM04                 
1 41885U 16078B   22149.47203288  .00003049  00000+0  15298-3 0  9993
2 41885  34.9494 309.3826 0014428 296.8847  63.0390 15.16779385301945
CYGFM02                 
1 41886U 16078C   22149.52909195  .00002831  00000+0  14194-3 0  9992
2 41886  34.9588 311.2284 0015165 291.8420  68.0679 15.16819548302033
CYGFM01                 
1 41887U 16078D   22149.54462263  .00002811  00000+0  14394-3 0  9995
2 41887  34.9532 321.9538 0016508 281.2326  78.6530 15.16063704301861
CYGFM08                 
1 41888U 16078E   22149.46876023  .00002794  00000+0  14131-3 0  9999
2 41888  34.9502 315.1610 0015648 291.5737  68.3307 15.16509012301987
CYGFM06                 
1 41889U 16078F   22149.57539333  .00002973  00000+0  14899-3 0  9992
2 41889  34.9585 309.6241 0014090 291.9846  67.9369 15.16833744301987
CYGFM07                 
1 41890U 16078G   22149.49311857  .00003247  00000+0  16289-3 0  9994
2 41890  34.9518 308.9708 0013870 295.7628  64.1652 15.16766942301956
CYGFM03                 
1 41891U 16078H   22149.55748942  .00003212  00000+0  16119-3 0  9995
2 41891  34.9555 309.0363 0013409 294.3409  65.5903 15.16760292301953
FENGYUN 3D              
1 43010U 17072A   22149.59888847  .00000123  00000+0  79823-4 0  9998
2 43010  98.8145  94.2917 0001500 350.7816   9.3319 14.19206003235093
NOAA 20                 
1 43013U 17073A   22149.68615095  .00000033  00000+0  36448-4 0  9991
2 43013  98.7162  88.5342 0001544  95.2709 264.8643 14.19554577234563
GOES 17                 
1 43226U 18022A   22149.60426035  .00000105  00000+0  00000+0 0  9998
2 43226   0.0507 257.0805 0000223 116.5235 313.8470  1.00273287 15583
FENGYUN 2H              
1 43491U 18050A   22149.27827181 -.00000121  00000+0  00000+0 0  9992
2 43491   1.1013  97.4787 0003687  30.1058 298.4774  1.00275862 14593
METOP-C                 
1 43689U 18087A   22149.64674042  .00000089  00000+0  60544-4 0  9994
2 43689  98.6848 209.9259 0004075  95.6421 264.5221 14.21511174184635
GEO-KOMPSAT-2A          
1 43823U 18100A   22149.60401255 -.00000336  00000+0  00000+0 0  9992
2 43823   0.0611 116.3545 0001918 323.1605 153.2894  1.00271787 12787
METEOR-M2 2             
1 44387U 19038A   22149.59834115  .00000042  00000+0  37799-4 0  9995
2 44387  98.7209 110.5294 0001389  18.5979 341.5240 14.23710569150727
FENGYUN 3E              
1 49008U 21062A   22149.62533039  .00000014  00000+0  26994-4 0  9999
2 49008  98.7104 151.8819 0002807  58.2870 301.8583 14.19731727 46642
GOES 18                 
1 51850U 22021A   22149.50466185  .00000072  00000+0  00000+0 0  9996
2 51850   0.0343 124.0063 0001899  58.1925 128.3887  0.99644807   761
2022-043A               
1 52320U 22043A   22149.52050909  .00009165  00000+0  38857-3 0  9995
2 52320  97.4728 225.0523 0013662 150.9087 305.0338 15.23267462  4620
2022-043B               
1 52321U 22043B   22149.41637767  .00032237  00000+0  12557-2 0  9991
2 52321  97.4715 225.0212 0014121 178.6962 242.9718 15.25820992  4617
2022-043C               
1 52322U 22043C   22149.42172116  .00009714  00000+0  39264-3 0  9994
2 52322  97.4722 225.0147 0014316 179.4657 242.4265 15.24856852  4614
2022-043D               
1 52323U 22043D   22149.41094131  .00015382  00000+0  27926-3 0  9994
2 52323  97.5642 226.4385 0086828 274.8349 146.9800 15.45496933  4673
2022-043E               
1 52324U 22043E   22149.42133927  .00080042  00000+0  26802-2 0  9999
2 52324  97.4638 225.1376 0020866 204.7602 219.6366 15.30426818  4627
2022-043F               
1 52325U 22043F   22149.51147118  .00052028  00000+0  29509-2 0  9997
2 52325  97.2205 223.3443 0108684 112.0189 249.2595 15.07816252  4562
2022-043G               
1 52326U 22043G   22149.50407544  .00018925  00000+0  16647-2 0  9996
2 52326  97.2935 222.7570 0157070  63.6189 298.1004 14.87470918  4505
2022-043H               
1 52327U 22043H   22149.52911617  .00034257  00000+0  19740-2 0  9993
2 52327  97.7084 225.1200 0118523 114.5791 246.7783 15.06467998  4574
2022-043J               
1 52328U 22043J   22149.51573326  .00024891  00000+0  21985-2 0  9991
2 52328  97.7284 224.2919 0159051  65.4229 296.3400 14.87056386  4496
STARLINK-3889           
1 52331U 22045A   22149.58867313 -.00329447  00000+0 -53250-2 0  9993
2 52331  53.2116 290.2596 0001825  18.9583 341.1496 15.53405127  7218
STARLINK-3831           
1 52332U 22045B   22149.58957692 -.00205488  00000+0 -32174-2 0  9994
2 52332  53.2130 290.2369 0002792  11.0574 349.0499 15.53824961  7212
STARLINK-3847           
1 52333U 22045C   22149.58907837 -.00296329  00000+0 -47592-2 0  9995
2 52333  53.2111 290.2428 0002356  23.0785 337.0332 15.53460072  7202
STARLINK-3880           
1 52334U 22045D   22149.58862825 -.00307354  00000+0 -49450-2 0  9999
2 52334  53.2122 290.2713 0002106  26.0485 334.0632 15.53452103  7201
STARLINK-3814           
1 52335U 22045E   22149.58840272 -.00346477  00000+0 -56272-2 0  9991
2 52335  53.2123 290.2801 0001648  52.9592 307.1570 15.53334570  7218
STARLINK-3823           
1 52336U 22045F   22149.58828502 -.00295995  00000+0 -47298-2 0  9990
2 52336  53.2124 290.2989 0001097 352.1090   7.9904 15.53603685  7215
STARLINK-3797           
1 52337U 22045G   22149.58883410 -.00355186  00000+0 -58023-2 0  9997
2 52337  53.2122 290.2484 0002191   9.2205 350.8846 15.53202674  7216
STARLINK-3815           
1 52338U 22045H   22149.58780856 -.00347830  00000+0 -56395-2 0  9995
2 52338  53.2122 290.3137 0001597  83.8910 276.2283 15.53386624  7217
STARLINK-3792           
1 52339U 22045J   22149.58804498 -.00306197  00000+0 -49184-2 0  9994
2 52339  53.2129 290.3050 0000564 242.3942 117.7012 15.53498906  7215
STARLINK-3818           
1 52340U 22045K   22149.56202857 -.00001338  00000+0 -51202-5 0  9991
2 52340  53.2148 289.4080 0001182  46.6884 313.4235 15.73205517  7215
STARLINK-3843           
1 52341U 22045L   22149.58845215 -.00207615  00000+0 -32491-2 0  9997
2 52341  53.2131 290.3077 0000472   9.1176 350.9844 15.53855129  7214
STARLINK-3850           
1 52342U 22045M   22149.56181163 -.00004167  00000+0 -25259-4 0  9994
2 52342  53.2142 289.4061 0001600  72.8646 287.2549 15.73217802  7229
STARLINK-3849           
1 52343U 22045N   22149.58766963 -.00354414  00000+0 -57536-2 0  9998
2 52343  53.2133 290.3924 0002314 102.3909 257.7361 15.53371047  7216
STARLINK-3851           
1 52344U 22045P   22149.56159494 -.00007002  00000+0 -45501-4 0  9991
2 52344  53.2153 289.4049 0001340  48.8705 311.2431 15.73204272  7224
STARLINK-3852           
1 52345U 22045Q   22149.56213995 -.00004990  00000+0 -31157-4 0  9994
2 52345  53.2147 289.4093 0001236  60.9992 299.1152 15.73200508  7215
STARLINK-3812           
1 52346U 22045R   22149.56150704 -.00002316  00000+0 -12076-4 0  9992
2 52346  53.2145 289.4044 0001631  44.5418 315.5733 15.73211761  7222
STARLINK-3826           
1 52347U 22045S   22149.56192816  .00000664  00000+0  91449-5 0  9997
2 52347  53.2150 289.4078 0001444  54.6217 305.4938 15.73203235  7229
STARLINK-3829           
1 52348U 22045T   22149.56130206 -.00007269  00000+0 -47406-4 0  9996
2 52348  53.2141 289.4040 0001801  16.3691 343.7386 15.73200719  7223
STARLINK-3819           
1 52349U 22045U   22149.56172192 -.00006226  00000+0 -39994-4 0  9992
2 52349  53.2149 289.4058 0001396  17.4120 342.6948 15.73189549  7228
STARLINK-3754           
1 52350U 22045V   22149.56126283 -.00004693  00000+0 -29096-4 0  9992
2 52350  53.2161 289.4051 0002256  60.9628 299.1618 15.73141928  7228
STARLINK-3816           
1 52351U 22045W   22149.56141201 -.00006531  00000+0 -42159-4 0  9998
2 52351  53.2155 289.4037 0002140  53.8339 306.2879 15.73187971  7225
STARLINK-3838           
1 52352U 22045X   22149.56087892 -.00005847  00000+0 -37272-4 0  9993
2 52352  53.2144 289.3987 0001314  28.0272 332.0819 15.73200254  7220
STARLINK-3807           
1 52353U 22045Y   22149.56109517 -.00007102  00000+0 -46238-4 0  9991
2 52353  53.2142 289.4020 0001585   9.6940 350.4110 15.73191876  7222
STARLINK-3876           
1 52354U 22045Z   22149.56045789 -.00001618  00000+0 -71160-5 0  9991
2 52354  53.2149 289.3970 0001381  33.5437 326.5670 15.73194566  7228
STARLINK-3877           
1 52355U 22045AA  22149.56098873 -.00004756  00000+0 -29497-4 0  9995
2 52355  53.2151 289.4005 0001536  20.6741 339.4341 15.73188762  7228
